[{"OBJECT_NAME":"YAOGAN-30 10B","OBJECT_ID":"2021-055B","EPOCH":"2026-03-09T23:15:59.423328","MEAN_MOTION":15.02202929,"ECCENTRICITY":0.00050008,"INCLINATION":34.9962,"RA_OF_ASC_NODE":36.3507,"ARG_OF_PERICENTER":289.0618,"MEAN_ANOMALY":70.9548,"EPHEMERIS_TYPE":0,"CLASSIFICATION_TYPE":"U","NORAD_CAT_ID":48861,"ELEMENT_SET_NO":999,"REV_AT_EPOCH":25824,"BSTAR":0.00040429536,"MEAN_MOTION_DOT":5.411e-5,"MEAN_MOTION_DDOT":0},{"OBJECT_NAME":"STARLINK-35268","OBJECT_ID":"2025-218V","EPOCH":"2026-03-09T15:08:31.186464","MEAN_MOTION":15.05655017,"ECCENTRICITY":0.0002163,"INCLINATION":97.6029,"RA_OF_ASC_NODE":292.9394,"ARG_OF_PERICENTER":74.6897,"MEAN_ANOMALY":285.4569,"EPHEMERIS_TYPE":0,"CLASSIFICATION_TYPE":"U","NORAD_CAT_ID":65810,"ELEMENT_SET_NO":999,"REV_AT_EPOCH":2496,"BSTAR":0.00029931,"MEAN_MOTION_DOT":4.261e-5,"MEAN_MOTION_DDOT":0}]
